[{"OBJECT_NAME":"STARLINK-4100","OBJECT_ID":"2022-083N","EPOCH":"2026-03-09T14:04:20.550144","MEAN_MOTION":15.08836801,"ECCENTRICITY":0.0001354,"INCLINATION":53.2183,"RA_OF_ASC_NODE":174.5977,"ARG_OF_PERICENTER":90.672,"MEAN_ANOMALY":269.4427,"EPHEMERIS_TYPE":0,"CLASSIFICATION_TYPE":"U","NORAD_CAT_ID":53144,"ELEMENT_SET_NO":999,"REV_AT_EPOCH":20120,"BSTAR":-2.2179e-5,"MEAN_MOTION_DOT":-6.41e-6,"MEAN_MOTION_DDOT":0},{"OBJECT_NAME":"PEGASUS DEB","OBJECT_ID":"1994-029AFX","EPOCH":"2026-03-01T06:33:22.731264","MEAN_MOTION":14.85739755,"ECCENTRICITY":0.0106553,"INCLINATION":81.851,"RA_OF_ASC_NODE":257.2393,"ARG_OF_PERICENTER":271.4617,"MEAN_ANOMALY":87.4394,"EPHEMERIS_TYPE":0,"CLASSIFICATION_TYPE":"U","NORAD_CAT_ID":39924,"ELEMENT_SET_NO":999,"REV_AT_EPOCH":63095,"BSTAR":0.00041812,"MEAN_MOTION_DOT":4.045e-5,"MEAN_MOTION_DDOT":0}]
